start=new Date('2023-04-17T00:00:00.000Z').valueOf();
sats=[{"ARG_OF_PERICENTER":"68.2749","TIME_SYSTEM":"UTC","EPHEMERIS_TYPE":"0","MEAN_ANOMALY":"291.8366","PERIOD":"95.594","ECCENTRICITY":"0.00011890","EPOCH":"2023-04-16T08:52:44.504256","OBJECT_ID":"2021-012Q","ELEMENT_SET_NO":"999","RCS_SIZE":"LARGE","CENTER_NAME":"EARTH","FILE":"3888626","OBJECT_TYPE":"PAYLOAD","PERIAPSIS":"546.458","INCLINATION":"53.0512","MEAN_MOTION_DDOT":"0.0000000000000","TLE_LINE1":"1 47634U 21012Q   23106.36995954  .00022425  00000-0  15205-2 0  9992","TLE_LINE2":"2 47634  53.0512 142.5988 0001189  68.2749 291.8366 15.06377916120467","BSTAR":"0.00152050000000","SEMIMAJOR_AXIS":"6925.416","GP_ID":"230166603","LAUNCH_DATE":"2021-02-16","CLASSIFICATION_TYPE":"U","MEAN_MOTION_DOT":"0.00022425","SITE":"AFETR","APOAPSIS":"548.105","MEAN_MOTION":"15.06377916","DECAY_DATE":null,"OBJECT_NAME":"STARLINK-2010","COUNTRY_CODE":"US","NORAD_CAT_ID":"47634","REV_AT_EPOCH":"12046","MEAN_ELEMENT_THEORY":"SGP4","RA_OF_ASC_NODE":"142.5988","REF_FRAME":"TEME"},{"MEAN_MOTION_DOT":"0.00009912","LAUNCH_DATE":"2021-02-16","CLASSIFICATION_TYPE":"U","MEAN_MOTION":"15.06397352","SITE":"AFETR","APOAPSIS":"548.695","OBJECT_NAME":"STARLINK-2012","COUNTRY_CODE":"US","DECAY_DATE":null,"RA_OF_ASC_NODE":"45.3985","REF_FRAME":"TEME","NORAD_CAT_ID":"47635","REV_AT_EPOCH":"12187","MEAN_ELEMENT_THEORY":"SGP4","EPOCH":"2023-04-16T20:38:00.190752","PERIOD":"95.592","MEAN_ANOMALY":"263.2785","ECCENTRICITY":"0.00021270","OBJECT_ID":"2021-012R","TIME_SYSTEM":"UTC","ARG_OF_PERICENTER":"96.8446","EPHEMERIS_TYPE":"0","MEAN_MOTION_DDOT":"0.0000000000000","INCLINATION":"53.0544","ELEMENT_SET_NO":"999","RCS_SIZE":"LARGE","CENTER_NAME":"EARTH","FILE":"3888799","PERIAPSIS":"545.749","OBJECT_TYPE":"PAYLOAD","TLE_LINE1":"1 47635U 21012R   23106.85972443  .00009912  00000-0  68345-3 0  9995","TLE_LINE2":"2 47635  53.0544  45.3985 0002127  96.8446 263.2785 15.06397352121874","GP_ID":"230196861","BSTAR":"0.00068345000000","SEMIMAJOR_AXIS":"6925.357"},{"MEAN_MOTION_DOT":"0.00009752","LAUNCH_DATE":"2021-02-16","CLASSIFICATION_TYPE":"U","MEAN_MOTION":"15.06391645","SITE":"AFETR","APOAPSIS":"548.198","OBJECT_NAME":"STARLINK-2013","COUNTRY_CODE":"US","DECAY_DATE":null,"RA_OF_ASC_NODE":"120.8690","REF_FRAME":"TEME","NORAD_CAT_ID":"47636","REV_AT_EPOCH":"12080","MEAN_ELEMENT_THEORY":"SGP4","PERIOD":"95.593","EPOCH":"2023-04-16T18:07:24.366432","MEAN_ANOMALY":"280.9382","ECCENTRICITY":"0.00013840","OBJECT_ID":"2021-012S","TIME_SYSTEM":"UTC","ARG_OF_PERICENTER":"79.1762","EPHEMERIS_TYPE":"0","INCLINATION":"53.0522","MEAN_MOTION_DDOT":"0.0000000000000","CENTER_NAME":"EARTH","FILE":"3888799","RCS_SIZE":"LARGE","ELEMENT_SET_NO":"999","OBJECT_TYPE":"PAYLOAD","PERIAPSIS":"546.281","TLE_LINE1":"1 47636U 21012S   23106.75514313  .00009752  00000-0  67285-3 0  9997","TLE_LINE2":"2 47636  53.0522 120.8690 0001384  79.1762 280.9382 15.06391645120802","GP_ID":"230197115","BSTAR":"0.00067285000000","SEMIMAJOR_AXIS":"6925.374"},{"MEAN_MOTION":"15.06392727","SITE":"AFETR","APOAPSIS":"548.206","MEAN_MOTION_DOT":"0.00005709","LAUNCH_DATE":"2021-02-16","CLASSIFICATION_TYPE":"U","RA_OF_ASC_NODE":"121.8956","REF_FRAME":"TEME","REV_AT_EPOCH":"12078","NORAD_CAT_ID":"47637","MEAN_ELEMENT_THEORY":"SGP4","COUNTRY_CODE":"US","OBJECT_NAME":"STARLINK-2014","DECAY_DATE":null,"INCLINATION":"53.0532","MEAN_MOTION_DDOT":"0.0000000000000","ELEMENT_SET_NO":"999","RCS_SIZE":"LARGE","FILE":"3888626","CENTER_NAME":"EARTH","OBJECT_TYPE":"PAYLOAD","PERIAPSIS":"546.266","PERIOD":"95.593","MEAN_ANOMALY":"273.6458","ECCENTRICITY":"0.00014010","EPOCH":"2023-04-16T12:38:19.052160","OBJECT_ID":"2021-012T","TIME_SYSTEM":"UTC","ARG_OF_PERICENTER":"86.4691","EPHEMERIS_TYPE":"0","GP_ID":"230166362","BSTAR":"0.00040190000000","SEMIMAJOR_AXIS":"6925.371","TLE_LINE1":"1 47637U 21012T   23106.52660940  .00005709  00000-0  40190-3 0  9995","TLE_LINE2":"2 47637  53.0532 121.8956 0001401  86.4691 273.6458 15.06392727120784"},{"LAUNCH_DATE":"2021-02-16","CLASSIFICATION_TYPE":"U","MEAN_MOTION_DOT":"0.00014039","SITE":"AFETR","APOAPSIS":"547.965","MEAN_MOTION":"15.06403498","DECAY_DATE":null,"OBJECT_NAME":"STARLINK-2015","COUNTRY_CODE":"US","REV_AT_EPOCH":"12185","NORAD_CAT_ID":"47638","MEAN_ELEMENT_THEORY":"SGP4","RA_OF_ASC_NODE":"45.4188","REF_FRAME":"TEME","TIME_SYSTEM":"UTC","ARG_OF_PERICENTER":"82.4388","EPHEMERIS_TYPE":"0","PERIOD":"95.592","MEAN_ANOMALY":"277.6725","EPOCH":"2023-04-16T20:32:41.543232","ECCENTRICITY":"0.00011010","OBJECT_ID":"2021-012U","RCS_SIZE":"LARGE","ELEMENT_SET_NO":"999","CENTER_NAME":"EARTH","FILE":"3888799","PERIAPSIS":"546.440","OBJECT_TYPE":"PAYLOAD","MEAN_MOTION_DDOT":"0.0000000000000","INCLINATION":"53.0562","TLE_LINE1":"1 47638U 21012U   23106.85603638  .00014039  00000-0  95940-3 0  9992","TLE_LINE2":"2 47638  53.0562  45.4188 0001101  82.4388 277.6725 15.06403498121850","BSTAR":"0.00095940000000","SEMIMAJOR_AXIS":"6925.338","GP_ID":"230196114"},{"TLE_LINE2":"2 47639  53.0533 120.8037 0001389  81.2352 278.8794 15.06398420120795","TLE_LINE1":"1 47639U 21012V   23106.76988415  .00000760  00000-0  69935-4 0  9994","SEMIMAJOR_AXIS":"6925.353","BSTAR":"0.00006993500000","GP_ID":"230196361","EPHEMERIS_TYPE":"0","TIME_SYSTEM":"UTC","ARG_OF_PERICENTER":"81.2352","OBJECT_ID":"2021-012V","ECCENTRICITY":"0.00013890","PERIOD":"95.592","MEAN_ANOMALY":"278.8794","EPOCH":"2023-04-16T18:28:37.990560","PERIAPSIS":"546.256","OBJECT_TYPE":"PAYLOAD","FILE":"3888799","CENTER_NAME":"EARTH","RCS_SIZE":"LARGE","ELEMENT_SET_NO":"999","MEAN_MOTION_DDOT":"0.0000000000000","INCLINATION":"53.0533","DECAY_DATE":null,"OBJECT_NAME":"STARLINK-2016","COUNTRY_CODE":"US","MEAN_ELEMENT_THEORY":"SGP4","NORAD_CAT_ID":"47639","REV_AT_EPOCH":"12079","REF_FRAME":"TEME","RA_OF_ASC_NODE":"120.8037","CLASSIFICATION_TYPE":"U","LAUNCH_DATE":"2021-02-16","MEAN_MOTION_DOT":"0.00000760","APOAPSIS":"548.180","SITE":"AFETR","MEAN_MOTION":"15.06398420"},{"COUNTRY_CODE":"US","OBJECT_NAME":"STARLINK-2018","DECAY_DATE":null,"REF_FRAME":"TEME","RA_OF_ASC_NODE":"140.5311","MEAN_ELEMENT_THEORY":"SGP4","NORAD_CAT_ID":"47640","REV_AT_EPOCH":"12054","MEAN_MOTION_DOT":"0.00018988","CLASSIFICATION_TYPE":"U","LAUNCH_DATE":"2021-02-16","MEAN_MOTION":"15.06382912","APOAPSIS":"548.290","SITE":"AFETR","TLE_LINE2":"2 47640  53.0527 140.5311 0001478  91.8875 268.2283 15.06382912120548","TLE_LINE1":"1 47640U 21012W   23106.83071103  .00018988  00000-0  12908-2 0  9998","GP_ID":"230197616","SEMIMAJOR_AXIS":"6925.401","BSTAR":"0.00129080000000","OBJECT_ID":"2021-012W","PERIOD":"95.593","EPOCH":"2023-04-16T19:56:13.432992","MEAN_ANOMALY":"268.2283","ECCENTRICITY":"0.00014780","EPHEMERIS_TYPE":"0","TIME_SYSTEM":"UTC","ARG_OF_PERICENTER":"91.8875","INCLINATION":"53.0527","MEAN_MOTION_DDOT":"0.0000000000000","PERIAPSIS":"546.242","OBJECT_TYPE":"PAYLOAD","CENTER_NAME":"EARTH","FILE":"3888799","RCS_SIZE":"LARGE","ELEMENT_SET_NO":"999"},{"SITE":"AFETR","APOAPSIS":"547.967","MEAN_MOTION":"15.06449869","LAUNCH_DATE":"2021-02-16","CLASSIFICATION_TYPE":"U","MEAN_MOTION_DOT":"0.00041052","NORAD_CAT_ID":"47641","REV_AT_EPOCH":"12174","MEAN_ELEMENT_THEORY":"SGP4","RA_OF_ASC_NODE":"48.7562","REF_FRAME":"TEME","DECAY_DATE":null,"OBJECT_NAME":"STARLINK-2019","COUNTRY_CODE":"US","CENTER_NAME":"EARTH","FILE":"3888626","RCS_SIZE":"LARGE","ELEMENT_SET_NO":"999","OBJECT_TYPE":"PAYLOAD","PERIAPSIS":"546.155","MEAN_MOTION_DDOT":"0.0000000000000","INCLINATION":"53.0560","ARG_OF_PERICENTER":"69.7552","TIME_SYSTEM":"UTC","EPHEMERIS_TYPE":"0","MEAN_ANOMALY":"290.3577","PERIOD":"95.589","ECCENTRICITY":"0.00013080","EPOCH":"2023-04-16T02:40:31.223136","OBJECT_ID":"2021-012X","BSTAR":"0.00275520000000","SEMIMAJOR_AXIS":"6925.196","GP_ID":"230166863","TLE_LINE1":"1 47641U 21012X   23106.11147249  .00041052  00000-0  27552-2 0  9994","TLE_LINE2":"2 47641  53.0560  48.7562 0001308  69.7552 290.3577 15.06449869121741"},{"MEAN_ELEMENT_THEORY":"SGP4","NORAD_CAT_ID":"47642","REV_AT_EPOCH":"12059","REF_FRAME":"TEME","RA_OF_ASC_NODE":"135.8027","DECAY_DATE":null,"COUNTRY_CODE":"US","OBJECT_NAME":"STARLINK-2020","APOAPSIS":"547.959","SITE":"AFETR","MEAN_MOTION":"15.06405196","CLASSIFICATION_TYPE":"U","LAUNCH_DATE":"2021-02-16","MEAN_MOTION_DOT":"0.00020260","SEMIMAJOR_AXIS":"6925.333","BSTAR":"0.00137490000000","GP_ID":"230196615","TLE_LINE2":"2 47642  53.0533 135.8027 0001099  92.5140 267.5975 15.06405196120595","TLE_LINE1":"1 47642U 21012Y   23106.77034461  .00020260  00000-0  13749-2 0  9999","PERIAPSIS":"546.437","OBJECT_TYPE":"PAYLOAD","FILE":"3888799","CENTER_NAME":"EARTH","RCS_SIZE":"LARGE","ELEMENT_SET_NO":"999","MEAN_MOTION_DDOT":"0.0000000000000","INCLINATION":"53.0533","EPHEMERIS_TYPE":"0","ARG_OF_PERICENTER":"92.5140","TIME_SYSTEM":"UTC","OBJECT_ID":"2021-012Y","EPOCH":"2023-04-16T18:29:17.774304","PERIOD":"95.592","MEAN_ANOMALY":"267.5975","ECCENTRICITY":"0.00010990"},{"OBJECT_NAME":"STARLINK-2022","COUNTRY_CODE":"US","DECAY_DATE":null,"REF_FRAME":"TEME","RA_OF_ASC_NODE":"122.2249","MEAN_ELEMENT_THEORY":"SGP4","REV_AT_EPOCH":"12076","NORAD_CAT_ID":"47643","MEAN_MOTION_DOT":"0.00006772","CLASSIFICATION_TYPE":"U","LAUNCH_DATE":"2021-02-16","MEAN_MOTION":"15.06394260","APOAPSIS":"548.245","SITE":"AFETR","TLE_LINE2":"2 47643  53.0537 122.2249 0001464  84.5506 275.5650 15.06394260120766","TLE_LINE1":"1 47643U 21012Z   23106.45289493  .00006772  00000-0  47315-3 0  9991","GP_ID":"230165869","SEMIMAJOR_AXIS":"6925.366","BSTAR":"0.00047315000000","OBJECT_ID":"2021-012Z","PERIOD":"95.593","EPOCH":"2023-04-16T10:52:10.121952","MEAN_ANOMALY":"275.5650","ECCENTRICITY":"0.00014640","EPHEMERIS_TYPE":"0","TIME_SYSTEM":"UTC","ARG_OF_PERICENTER":"84.5506","INCLINATION":"53.0537","MEAN_MOTION_DDOT":"0.0000000000000","OBJECT_TYPE":"PAYLOAD","PERIAPSIS":"546.217","FILE":"3888626","CENTER_NAME":"EARTH","RCS_SIZE":"LARGE","ELEMENT_SET_NO":"999"}];
